{
    "links": {
        "self": "http://www.neowsapp.com/rest/v1/neo/54016947?api_key=iIulBulltgU6a56xZRHN4H3l9WmuAYTsLGpBGhQ2"
    },
    "id": "54016947",
    "neo_reference_id": "54016947",
    "name": "(2020 JB)",
    "designation": "2020 JB",
    "nasa_jpl_url": "http://ssd.jpl.nasa.gov/sbdb.cgi?sstr=54016947",
    "absolute_magnitude_h": 23.445,
    "estimated_diameter": {
        "kilometers": {
            "estimated_diameter_min": 0.0543944984,
            "estimated_diameter_max": 0.1216297961
        },
        "meters": {
            "estimated_diameter_min": 54.3944984441,
            "estimated_diameter_max": 121.6297961231
        },
        "miles": {
            "estimated_diameter_min": 0.0337991639,
            "estimated_diameter_max": 0.075577228
        },
        "feet": {
            "estimated_diameter_min": 178.4596462755,
            "estimated_diameter_max": 399.0479003125
        }
    },
    "is_potentially_hazardous_asteroid": false,
    "close_approach_data": [
        {
            "close_approach_date": "2020-05-03",
            "close_approach_date_full": "2020-May-03 02:57",
            "epoch_date_close_approach": 1588474620000,
            "relative_velocity": {
                "kilometers_per_second": "10.3827604706",
                "kilometers_per_hour": "37377.9376943112",
                "miles_per_hour": "23225.1968967791"
            },
            "miss_distance": {
                "astronomical": "0.0390320952",
                "lunar": "15.1834850328",
                "kilometers": "5839118.303557224",
                "miles": "3628259.8691847312"
            },
            "orbiting_body": "Earth"
        },
        {
            "close_approach_date": "2025-05-14",
            "close_approach_date_full": "2025-May-14 00:00",
            "epoch_date_close_approach": 1747180800000,
            "relative_velocity": {
                "kilometers_per_second": "13.2413503845",
                "kilometers_per_hour": "47668.8613841683",
                "miles_per_hour": "29619.5766750684"
            },
            "miss_distance": {
                "astronomical": "0.0967964792",
                "lunar": "37.6538304088",
                "kilometers": "14480547.111819304",
                "miles": "8997794.7419982352"
            },
            "orbiting_body": "Earth"
        },
        {
            "close_approach_date": "2030-05-24",
            "close_approach_date_full": "2030-May-24 05:40",
            "epoch_date_close_approach": 1905831600000,
            "relative_velocity": {
                "kilometers_per_second": "17.343223734",
                "kilometers_per_hour": "62435.6054425598",
                "miles_per_hour": "38795.0571706839"
            },
            "miss_distance": {
                "astronomical": "0.235690431",
                "lunar": "91.683577659",
                "kilometers": "35258786.45698197",
                "miles": "21908793.980092386"
            },
            "orbiting_body": "Earth"
        }
    ],
    "orbital_data": {
        "orbit_id": "15",
        "orbit_determination_date": "2020-09-11 07:47:59",
        "first_observation_date": "2020-05-01",
        "last_observation_date": "2020-05-25",
        "data_arc_in_days": 24,
        "observations_used": 136,
        "orbit_uncertainty": "7",
        "minimum_orbit_intersection": ".0373046",
        "jupiter_tisserand_invariant": "3.839",
        "epoch_osculation": "2459000.5",
        "eccentricity": ".5024923168802081",
        "semi_major_axis": "1.846713276509548",
        "inclination": "7.378823867962374",
        "ascending_node_longitude": "59.28929146144279",
        "orbital_period": "916.6375287601126",
        "perihelion_distance": ".9187540435828248",
        "perihelion_argument": "118.7305272891043",
        "aphelion_distance": "2.774672509436271",
        "perihelion_time": "2458937.147344731096",
        "mean_anomaly": "24.88110641471888",
        "mean_motion": ".3927397566701781",
        "equinox": "J2000",
        "orbit_class": {
            "orbit_class_type": "APO",
            "orbit_class_description": "Near-Earth asteroid orbits which cross the Earth’s orbit similar to that of 1862 Apollo",
            "orbit_class_range": "a (semi-major axis) > 1.0 AU; q (perihelion) < 1.017 AU"
        }
    },
    "is_sentry_object": false
}